{
  "type": "FeatureCollection",
  "features": [
    {
      "type": "Feature",
      "properties": {
        "norad_id": 49336,
        "name": "QZS-1R (QZSS/PRN 196)",
        "group": "gnss",
        "lat": -24.678758977340806,
        "lon": -60.08991019525088,
        "alt_km": 33527.851162804385,
        "timestamp": "2025-12-03T06:58:43.480018+00:00",
        "meta_object_name": "QZS-1R (QZSS/PRN 196)",
        "meta_object_id": "2021-096A",
        "meta_epoch": "2025-12-01T04:08:48.475392",
        "meta_mean_motion": 1.0026089,
        "meta_eccentricity": 0.0753298,
        "meta_inclination": 37.0524,
        "meta_ra_of_asc_node": 82.5332,
        "meta_arg_of_pericenter": 271.0716,
        "meta_mean_anomaly": 274.2635,
        "meta_ephemeris_type": 0,
        "meta_classification_type": "U",
        "meta_norad_cat_id": 49336,
        "meta_element_set_no": 999,
        "meta_rev_at_epoch": 1502,
        "meta_bstar": 0,
        "meta_mean_motion_dot": -2.17e-06,
        "meta_mean_motion_ddot": 0,
        "tle_line1": "1 49336U 21096A   25335.17278328 -.00000217  00000+0  00000+0 0  9998",
        "tle_line2": "2 49336  37.0524  82.5332 0753298 271.0716 274.2635  1.00260890 15022"
      },
      "geometry": {
        "type": "Point",
        "coordinates": [
          -60.08991019525088,
          -24.678758977340806
        ]
      }
    },
    {
      "type": "Feature",
      "properties": {
        "norad_id": 49809,
        "name": "GSAT0223 (GALILEO 27)",
        "group": "gnss",
        "lat": 37.23572202523134,
        "lon": 137.64836974129537,
        "alt_km": 23223.262042072107,
        "timestamp": "2025-12-03T06:58:43.480029+00:00",
        "meta_object_name": "GSAT0223 (GALILEO 27)",
        "meta_object_id": "2021-116A",
        "meta_epoch": "2025-12-01T07:17:38.669856",
        "meta_mean_motion": 1.70475545,
        "meta_eccentricity": 0.00047526,
        "meta_inclination": 57.2221,
        "meta_ra_of_asc_node": 347.0231,
        "meta_arg_of_pericenter": 247.908,
        "meta_mean_anomaly": 106.7158,
        "meta_ephemeris_type": 0,
        "meta_classification_type": "U",
        "meta_norad_cat_id": 49809,
        "meta_element_set_no": 999,
        "meta_rev_at_epoch": 2480,
        "meta_bstar": 0,
        "meta_mean_motion_dot": -5.9e-07,
        "meta_mean_motion_ddot": 0,
        "tle_line1": "1 49809U 21116A   25335.30391979 -.00000059  00000+0  00000+0 0  9993",
        "tle_line2": "2 49809  57.2221 347.0231 0004752 247.9080 106.7158  1.70475545 24809"
      },
      "geometry": {
        "type": "Point",
        "coordinates": [
          137.64836974129537,
          37.23572202523134
        ]
      }
    },
    {
      "type": "Feature",
      "properties": {
        "norad_id": 49810,
        "name": "GSAT0224 (GALILEO 28)",
        "group": "gnss",
        "lat": -50.476286594728805,
        "lon": -141.66215228719685,
        "alt_km": 23215.667771984845,
        "timestamp": "2025-12-03T06:58:43.480043+00:00",
        "meta_object_name": "GSAT0224 (GALILEO 28)",
        "meta_object_id": "2021-116B",
        "meta_epoch": "2025-12-01T10:08:38.707008",
        "meta_mean_motion": 1.70475584,
        "meta_eccentricity": 0.00040435,
        "meta_inclination": 57.2228,
        "meta_ra_of_asc_node": 347.0184,
        "meta_arg_of_pericenter": 250.3752,
        "meta_mean_anomaly": 289.7186,
        "meta_ephemeris_type": 0,
        "meta_classification_type": "U",
        "meta_norad_cat_id": 49810,
        "meta_element_set_no": 999,
        "meta_rev_at_epoch": 2483,
        "meta_bstar": 0,
        "meta_mean_motion_dot": -5.9e-07,
        "meta_mean_motion_ddot": 0,
        "tle_line1": "1 49810U 21116B   25335.42267022 -.00000059  00000+0  00000+0 0  9999",
        "tle_line2": "2 49810  57.2228 347.0184 0004043 250.3752 289.7186  1.70475584 24831"
      },
      "geometry": {
        "type": "Point",
        "coordinates": [
          -141.66215228719685,
          -50.476286594728805
        ]
      }
    },
    {
      "type": "Feature",
      "properties": {
        "norad_id": 52984,
        "name": "COSMOS 2557 (706K)",
        "group": "gnss",
        "lat": -60.67225977617272,
        "lon": -160.09179272721914,
        "alt_km": 19103.531207639215,
        "timestamp": "2025-12-03T06:58:43.480057+00:00",
        "meta_object_name": "COSMOS 2557 (706K)",
        "meta_object_id": "2022-075A",
        "meta_epoch": "2025-12-01T01:56:28.375008",
        "meta_mean_motion": 2.13101767,
        "meta_eccentricity": 0.00137561,
        "meta_inclination": 64.4163,
        "meta_ra_of_asc_node": 321.4618,
        "meta_arg_of_pericenter": 276.3647,
        "meta_mean_anomaly": 83.4921,
        "meta_ephemeris_type": 0,
        "meta_classification_type": "U",
        "meta_norad_cat_id": 52984,
        "meta_element_set_no": 999,
        "meta_rev_at_epoch": 2649,
        "meta_bstar": 0,
        "meta_mean_motion_dot": -2.7e-07,
        "meta_mean_motion_ddot": 0,
        "tle_line1": "1 52984U 22075A   25335.08088397 -.00000027  00000+0  00000+0 0  9993",
        "tle_line2": "2 52984  64.4163 321.4618 0013756 276.3647  83.4921  2.13101767 26492"
      },
      "geometry": {
        "type": "Point",
        "coordinates": [
          -160.09179272721914,
          -60.67225977617272
        ]
      }
    },
    {
      "type": "Feature",
      "properties": {
        "norad_id": 54031,
        "name": "COSMOS 2559 (707K)",
        "group": "gnss",
        "lat": 30.29931175953907,
        "lon": -22.252577703075467,
        "alt_km": 19155.147601140427,
        "timestamp": "2025-12-03T06:58:43.480068+00:00",
        "meta_object_name": "COSMOS 2559 (707K)",
        "meta_object_id": "2022-130A",
        "meta_epoch": "2025-12-02T07:23:14.790048",
        "meta_mean_motion": 2.1310125,
        "meta_eccentricity": 0.00120758,
        "meta_inclination": 64.3878,
        "meta_ra_of_asc_node": 321.5084,
        "meta_arg_of_pericenter": 192.7828,
        "meta_mean_anomaly": 167.1956,
        "meta_ephemeris_type": 0,
        "meta_classification_type": "U",
        "meta_norad_cat_id": 54031,
        "meta_element_set_no": 999,
        "meta_rev_at_epoch": 2449,
        "meta_bstar": 0,
        "meta_mean_motion_dot": -3.6e-07,
        "meta_mean_motion_ddot": 0,
        "tle_line1": "1 54031U 22130A   25336.30781007 -.00000036  00000+0  00000+0 0  9994",
        "tle_line2": "2 54031  64.3878 321.5084 0012075 192.7828 167.1956  2.13101250 24495"
      },
      "geometry": {
        "type": "Point",
        "coordinates": [
          -22.252577703075467,
          30.29931175953907
        ]
      }
    },
    {
      "type": "Feature",
      "properties": {
        "norad_id": 54377,
        "name": "COSMOS 2564 (761)",
        "group": "gnss",
        "lat": 23.800982740274417,
        "lon": 7.198452431321675,
        "alt_km": 19113.887505140257,
        "timestamp": "2025-12-03T06:58:43.480081+00:00",
        "meta_object_name": "COSMOS 2564 (761)",
        "meta_object_id": "2022-161A",
        "meta_epoch": "2025-12-01T05:07:31.965888",
        "meta_mean_motion": 2.13101951,
        "meta_eccentricity": 0.0008738,
        "meta_inclination": 64.7376,
        "meta_ra_of_asc_node": 199.2819,
        "meta_arg_of_pericenter": 206.5464,
        "meta_mean_anomaly": 153.5009,
        "meta_ephemeris_type": 0,
        "meta_classification_type": "U",
        "meta_norad_cat_id": 54377,
        "meta_element_set_no": 999,
        "meta_rev_at_epoch": 2341,
        "meta_bstar": 0,
        "meta_mean_motion_dot": 1e-06,
        "meta_mean_motion_ddot": 0,
        "tle_line1": "1 54377U 22161A   25335.21356442  .00000100  00000+0  00000+0 0  9992",
        "tle_line2": "2 54377  64.7376 199.2819 0008738 206.5464 153.5009  2.13101951 23419"
      },
      "geometry": {
        "type": "Point",
        "coordinates": [
          7.198452431321675,
          23.800982740274417
        ]
      }
    },
    {
      "type": "Feature",
      "properties": {
        "norad_id": 55268,
        "name": "GPS BIII-6  (PRN 28)",
        "group": "gnss",
        "lat": -16.930194142331366,
        "lon": -11.515913453371695,
        "alt_km": 20193.814631280427,
        "timestamp": "2025-12-03T06:58:43.480092+00:00",
        "meta_object_name": "GPS BIII-6  (PRN 28)",
        "meta_object_id": "2023-009A",
        "meta_epoch": "2025-12-02T00:29:31.953408",
        "meta_mean_motion": 2.00556444,
        "meta_eccentricity": 0.00034715,
        "meta_inclination": 55.1057,
        "meta_ra_of_asc_node": 156.2669,
        "meta_arg_of_pericenter": 359.2649,
        "meta_mean_anomaly": 4.3682,
        "meta_ephemeris_type": 0,
        "meta_classification_type": "U",
        "meta_norad_cat_id": 55268,
        "meta_element_set_no": 999,
        "meta_rev_at_epoch": 2129,
        "meta_bstar": 0,
        "meta_mean_motion_dot": 1.22e-06,
        "meta_mean_motion_ddot": 0,
        "tle_line1": "1 55268U 23009A   25336.02050872  .00000122  00000+0  00000+0 0  9996",
        "tle_line2": "2 55268  55.1057 156.2669 0003471 359.2649   4.3682  2.00556444 21296"
      },
      "geometry": {
        "type": "Point",
        "coordinates": [
          -11.515913453371695,
          -16.930194142331366
        ]
      }
    }
  ]
}